     2              NAVIGATION DATA                         RINEX VERSION / TYPE
CCRINEXN V1.6.0 UX  CDDIS               24-FEB-16 15:33     PGM / RUN BY / DATE 
IGS BROADCAST EPHEMERIS FILE                                COMMENT             
    0.1397D-07  0.0000D+00 -0.5960D-07  0.5960D-07          ION ALPHA           
    0.1106D+06 -0.3277D+05 -0.2621D+06  0.1966D+06          ION BETA            
    0.372529029846D-08 0.888178419700D-14   319488     1885 DELTA-UTC: A0,A1,T,W
    17                                                      LEAP SECONDS        
                                                            END OF HEADER       
 2 16  2 23 22  0  0.0 0.599496532232D-03-0.113686837722D-12 0.000000000000D+00
    0.520000000000D+02-0.104250000000D+03 0.484448750664D-08-0.192271738334D+01
   -0.537931919098D-05 0.154791970272D-01 0.634603202343D-05 0.515372969818D+04
    0.252000000000D+06 0.219792127609D-06-0.573453615925D+00-0.109896063805D-06
    0.942748530426D+00 0.244281250000D+03-0.215985506688D+01-0.814498212834D-08
   -0.306441335940D-09 0.000000000000D+00 0.188500000000D+04 0.000000000000D+00
    0.200000000000D+01 0.000000000000D+00-0.204890966415D-07 0.520000000000D+02
    0.244800000000D+06 0.400000000000D+01 0.000000000000D+00 0.000000000000D+00
 3 16  2 23 22  0  0.0-0.282763503492D-04-0.466116034659D-11 0.000000000000D+00
    0.103000000000D+03 0.165000000000D+02 0.421874715632D-08 0.139242807382D+00
    0.957399606705D-06 0.264647300355D-03 0.114850699902D-04 0.515376701546D+04
    0.252000000000D+06 0.130385160446D-07 0.510723881791D+00-0.204890966415D-07
    0.959637346187D+00 0.157500000000D+03-0.313737779642D+01-0.787211361942D-08
    0.403588239642D-09 0.100000000000D+01 0.188500000000D+04 0.000000000000D+00
    0.200000000000D+01 0.000000000000D+00 0.186264514923D-08 0.103000000000D+03
    0.244818000000D+06 0.400000000000D+01 0.000000000000D+00 0.000000000000D+00
 4 16  2 23 22  0  0.0-0.250936951488D-03-0.909494701773D-12 0.000000000000D+00
    0.840000000000D+02 0.649687500000D+02 0.512485632798D-08 0.814509406626D+00
    0.366754829884D-05 0.815144018270D-02 0.119600445032D-04 0.515362292862D+04
    0.252000000000D+06-0.372529029846D-07-0.260895629389D+01 0.800937414169D-07
    0.983623190094D+00 0.160656250000D+03 0.855416952692D+00-0.779889628391D-08
    0.550022910662D-10 0.100000000000D+01 0.188500000000D+04 0.000000000000D+00
    0.280000000000D+01 0.630000000000D+02-0.190921127796D-07 0.840000000000D+02
    0.244800000000D+06 0.400000000000D+01 0.000000000000D+00 0.000000000000D+00
 5 16  2 23 22  0  0.0-0.143405515701D-03 0.341060513165D-11 0.000000000000D+00
    0.500000000000D+02 0.210625000000D+02 0.449590155806D-08 0.540948844554D+00
    0.114366412163D-05 0.458316237200D-02 0.122375786304D-04 0.515374625588D+04
    0.252000000000D+06-0.558793544769D-08 0.500070180879D+00 0.124797224999D-06
    0.946749643557D+00 0.135593750000D+03 0.479099509149D+00-0.802176271004D-08
    0.376801409577D-09 0.000000000000D+00 0.188500000000D+04 0.000000000000D+00
    0.200000000000D+01 0.000000000000D+00-0.107102096081D-07 0.500000000000D+02
    0.244800000000D+06 0.400000000000D+01 0.000000000000D+00 0.000000000000D+00
 6 16  2 23 22  0  0.0 0.150204636157D-03 0.591171556152D-11 0.000000000000D+00
    0.940000000000D+02-0.929687500000D+02 0.446982904346D-08-0.157724109097D+01
   -0.482238829136D-05 0.329548958689D-03 0.732205808163D-05 0.515364314270D+04
    0.252000000000D+06 0.335276126862D-07-0.538426665529D+00 0.931322574616D-08
    0.963886074295D+00 0.241031250000D+03-0.189425692361D+01-0.813248160764D-08
   -0.411802867528D-09 0.100000000000D+01 0.188500000000D+04 0.000000000000D+00
    0.200000000000D+01 0.000000000000D+00 0.419095158577D-08 0.940000000000D+02
    0.244818000000D+06 0.400000000000D+01 0.000000000000D+00 0.000000000000D+00
 7 16  2 23 22  0  0.0 0.468297861517D-03-0.170530256582D-11 0.000000000000D+00
    0.310000000000D+02-0.575312500000D+02 0.447590072494D-08-0.309710611940D+01
   -0.300630927086D-05 0.909126980696D-02 0.862963497639D-05 0.515367136383D+04
    0.252000000000D+06-0.130385160446D-06 0.262934850733D+01-0.108033418655D-06
    0.967453628247D+00 0.218468750000D+03-0.268232870000D+01-0.787068498848D-08
   -0.508592613495D-09 0.100000000000D+01 0.188500000000D+04 0.000000000000D+00
    0.200000000000D+01 0.000000000000D+00-0.111758708954D-07 0.310000000000D+02
    0.246468000000D+06 0.400000000000D+01 0.000000000000D+00 0.000000000000D+00
 8 16  2 23 22  0  0.0-0.250209122896D-04-0.147792889038D-11 0.000000000000D+00
    0.210000000000D+02 0.430937500000D+02 0.477091301339D-08 0.870741497947D+00
    0.213086605072D-05 0.182262575254D-02 0.305473804474D-05 0.515364750481D+04
    0.252000000000D+06-0.931322574616D-08-0.159005582617D+01-0.186264514923D-07
    0.961886862152D+00 0.323281250000D+03-0.134611370688D+01-0.844642325600D-08
    0.942896418278D-10 0.100000000000D+01 0.188500000000D+04 0.000000000000D+00
    0.200000000000D+01 0.000000000000D+00 0.465661287308D-08 0.210000000000D+02
    0.251880000000D+06 0.400000000000D+01 0.000000000000D+00 0.000000000000D+00
 9 16  2 23 22  0  0.0 0.767549499869D-04 0.761701812735D-11 0.000000000000D+00
    0.230000000000D+02 0.358750000000D+02 0.512235622384D-08-0.294158223339D+00
    0.162050127983D-05 0.650260597467D-03 0.417791306973D-05 0.515362649727D+04
    0.252000000000D+06 0.502914190292D-07 0.155123969851D+01 0.279396772385D-07
    0.955146477342D+00 0.295843750000D+03 0.192159901758D+01-0.848606776450D-08
    0.303584074067D-09 0.100000000000D+01 0.188500000000D+04 0.000000000000D+00
    0.200000000000D+01 0.000000000000D+00 0.139698386192D-08 0.230000000000D+02
    0.244818000000D+06 0.400000000000D+01 0.000000000000D+00 0.000000000000D+00
10 16  2 23 22  0  0.0 0.392762012780D-04-0.568434188608D-11 0.000000000000D+00
    0.250000000000D+02 0.996875000000D+01 0.423696220077D-08 0.173564177174D+01
    0.547617673874D-06 0.117446598597D-02 0.124350190163D-04 0.515369556618D+04
    0.252000000000D+06-0.745058059692D-08 0.506638936140D+00 0.316649675369D-07
    0.959899384074D+00 0.136937500000D+03-0.287794445577D+01-0.787032783075D-08
    0.385373195198D-09 0.000000000000D+00 0.188500000000D+04 0.000000000000D+00
    0.200000000000D+01 0.000000000000D+00 0.232830643654D-08 0.250000000000D+02
    0.248430000000D+06 0.400000000000D+01 0.000000000000D+00 0.000000000000D+00
11 16  2 23 22  0  0.0-0.633709598333D-03-0.170530256582D-11 0.000000000000D+00
    0.770000000000D+02-0.804375000000D+02 0.606168093498D-08-0.297715026598D+01
   -0.409595668316D-05 0.162259854842D-01 0.256113708019D-05 0.515365413475D+04
    0.252000000000D+06 0.221654772759D-06-0.900322925972D+00-0.186264514923D-08
    0.895659880446D+00 0.293437500000D+03 0.150242556592D+01-0.876715056108D-08
   -0.282511763983D-09 0.100000000000D+01 0.188500000000D+04 0.000000000000D+00
    0.280000000000D+01 0.000000000000D+00-0.121071934700D-07 0.770000000000D+02
    0.244800000000D+06 0.000000000000D+00 0.000000000000D+00 0.000000000000D+00
12 16  2 23 22  0  0.0 0.369668938220D-03 0.159161572810D-11 0.000000000000D+00
    0.870000000000D+02 0.798125000000D+02 0.356443418728D-08 0.277303766111D+01
    0.394321978092D-05 0.588079064619D-02 0.120382755995D-04 0.515378672981D+04
    0.252000000000D+06-0.521540641785D-07-0.258038242729D+01-0.670552253723D-07
    0.990541417466D+00 0.158968750000D+03 0.673696526804D+00-0.747031116845D-08
    0.159649507186D-09 0.000000000000D+00 0.188500000000D+04 0.000000000000D+00
    0.200000000000D+01 0.000000000000D+00-0.121071934700D-07 0.870000000000D+02
    0.244800000000D+06 0.400000000000D+01 0.000000000000D+00 0.000000000000D+00
13 16  2 23 22  0  0.0-0.187311321497D-03-0.284217094304D-11 0.000000000000D+00
    0.630000000000D+02 0.151875000000D+02 0.479269963518D-08-0.214105886635D+01
    0.922009348869D-06 0.465016253293D-02 0.386871397495D-05 0.515367433357D+04
    0.252000000000D+06 0.558793544769D-08 0.167060594182D+01 0.633299350738D-07
    0.971595629166D+00 0.311062500000D+03 0.198247411245D+01-0.825105797540D-08
    0.191793703263D-09 0.000000000000D+00 0.188500000000D+04 0.000000000000D+00
    0.200000000000D+01 0.000000000000D+00-0.111758708954D-07 0.630000000000D+02
    0.244800000000D+06 0.400000000000D+01 0.000000000000D+00 0.000000000000D+00
14 16  2 23 22  0  0.0 0.131269916892D-05-0.227373675443D-11 0.000000000000D+00
    0.510000000000D+02 0.251875000000D+02 0.506021077809D-08-0.318009597279D+00
    0.131502747536D-05 0.833635427989D-02 0.430271029472D-05 0.515372027206D+04
    0.252000000000D+06-0.949949026108D-07 0.163414545459D+01 0.521540641785D-07
    0.964090746775D+00 0.301687500000D+03-0.195101143322D+01-0.855464204946D-08
    0.244653047924D-09 0.100000000000D+01 0.188500000000D+04 0.000000000000D+00
    0.200000000000D+01 0.000000000000D+00-0.931322574616D-08 0.510000000000D+02
    0.244800000000D+06 0.400000000000D+01 0.000000000000D+00 0.000000000000D+00
15 16  2 23 22  0  0.0-0.298624392599D-03-0.181898940355D-11 0.000000000000D+00
    0.320000000000D+02 0.406250000000D+02 0.568702260160D-08-0.114219071228D+01
    0.214390456677D-05 0.807020603679D-02 0.375322997570D-05 0.515379560089D+04
    0.252000000000D+06 0.169500708580D-06 0.150094106833D+01-0.726431608200D-07
    0.930931381006D+00 0.285531250000D+03 0.484645209224D+00-0.876536511264D-08
    0.411802867528D-09 0.000000000000D+00 0.188500000000D+04 0.000000000000D+00
    0.200000000000D+01 0.000000000000D+00-0.107102096081D-07 0.320000000000D+02
    0.244800000000D+06 0.400000000000D+01 0.000000000000D+00 0.000000000000D+00
